{"type": "FeatureCollection", "features": [{"type": "Feature", "properties": {"name": "Service Area Polygon"}, "geometry": {"type": "Polygon", "coordinates": [[[-119.8821187025243, 37.32571327959752], [-119.8816045737528, 37.32531589706002], [-119.8801266750087, 37.32502453725716], [-119.8791785552419, 37.32441309769019], [-119.8787735373621, 37.32370559430208], [-119.8747798694513, 37.31906742556941], [-119.8744790384645, 37.3174550997443], [-119.8742811072811, 37.31573736263245], [-119.8736547649095, 37.31393250067764], [-119.8731610904034, 37.31251678467879], [-119.8728696832907, 37.31108501099683], [-119.8716695208541, 37.30938130913182], [-119.8700705045209, 37.30830830829061], [-119.8678211189782, 37.30586533103614], [-119.8559248761615, 37.24192110852849], [-119.8304934809819, 37.18072542206504], [-119.7790837451086, 37.12846783204004], [-119.7370166000339, 37.12447407387963], [-119.7351641977613, 37.124004309542], [-119.7316515862278, 37.12255328844367], [-119.7281597500348, 37.12145647254138], [-119.7235903095246, 37.12085628154087], [-119.7127720944797, 37.12149299239256], [-119.7113973302173, 37.12125230048277], [-119.7103266921687, 37.12088858551214], [-119.7084914832959, 37.12040705507636], [-119.7068042787037, 37.12053940113687], [-119.705276170803, 37.12029892746717], [-119.7023674845695, 37.12019062695583], [-119.701598501317, 37.11945975568301], [-119.6989951861589, 37.11787146721706], [-119.6969986550615, 37.11677859024856], [-119.6962197560695, 37.11568814485626], [-119.6956010665075, 37.11508218747345], [-119.6949874906844, 37.11385132219523], [-119.6943659120072, 37.11188825470656], [-119.6932779344497, 37.10981872792438], [-119.6921940187307, 37.10798572031746], [-119.6911046271336, 37.10616507230702], [-119.690788385328, 37.10469591175872], [-119.6894037539256, 37.1030990988696], [-119.6895495075863, 37.10199600905752], [-119.6884692327073, 37.1010226151867], [-119.6873980064637, 37.10015010185089], [-119.6870893586348, 37.09928469955694], [-119.6872306017484, 37.09769470935323], [-119.6870705142111, 37.09646409097869], [-119.6856899464088, 37.09634803009835], [-119.6844701187451, 37.09633474444416], [-119.6827782690826, 37.09635797494514], [-119.6815506853489, 37.09661864952417], [-119.6797131796429, 37.09674532958488], [-119.6780257741882, 37.09675703498525], [-119.6764934707686, 37.09637846326592], [-119.6769418277808, 37.09453028111371], [-119.6747919260918, 37.09416971975849], [-119.6726511699822, 37.09451899301595], [-119.671890194201, 37.09525015173831], [-119.6719071242686, 37.09719464404492], [-119.6541634297251, 37.08630684169004], [-119.6215665180577, 37.10249050865217], [-119.6203719975799, 37.11187372336041], [-119.5603758920691, 37.14297451574424], [-119.5592322640839, 37.14282135410005], [-119.5560291214651, 37.14303558880321], [-119.5549604172032, 37.14359952208685], [-119.5535938097908, 37.14429326448142], [-119.5516289104937, 37.14458063871083], [-119.5496355626867, 37.14369316873588], [-119.5480118450989, 37.14287926597706], [-119.5469290064272, 37.14177370770597], [-119.5454949784617, 37.14061915987526], [-119.544659709575, 37.13930665399752], [-119.5431172630674, 37.13787353893984], [-119.5410903677495, 37.13678588963928], [-119.5400301471762, 37.13561913981591], [-119.5397801012503, 37.13458834100665], [-119.5390990373478, 37.13369927720511], [-119.5382746606644, 37.13308797588279], [-119.536586508721, 37.13274863024356], [-119.5345957252175, 37.13234672081955], [-119.5329657165682, 37.13146010328965], [-119.5307373249985, 37.12995515840998], [-119.5288344727141, 37.12858855124527], [-119.5266077074719, 37.12803996422908], [-119.5240872912658, 37.12735965655399], [-119.5234218842555, 37.12843763096647], [-119.5230031376324, 37.13203703571086], [-119.5221037251236, 37.13674200497777], [-119.5210054558903, 37.14088994326406], [-119.519662024161, 37.144142396194], [-119.5156081303594, 37.14704263477316], [-119.5097336970882, 37.14832571348209], [-119.5058906361242, 37.1497816280739], [-119.5033969990803, 37.1488880174255], [-119.5020289326555, 37.14726919339176], [-119.4986293613992, 37.14529983539666], [-119.4943184069261, 37.14332820303002], [-119.4918253818132, 37.13974174171571], [-119.4913346952376, 37.13726949856256], [-119.4909696449217, 37.13726801095383], [-119.4899797585778, 37.13436673068977], [-119.490691528751, 37.13108515401579], [-119.4912814736446, 37.12885303509778], [-119.4922367617125, 37.12633229531274], [-119.4924684614265, 37.12383136437099], [-119.4908821190424, 37.12086018929085], [-119.4890456257045, 37.1178538775779], [-119.4881921120446, 37.11537130136382], [-119.4847751240378, 37.11216119135441], [-119.4834399351955, 37.11025549018411], [-119.479949771293, 37.11030418107348], [-119.4770436253328, 37.1102134849704], [-119.4726708981461, 37.11077187056822], [-119.4700238071138, 37.11300956555176], [-119.4689496358959, 37.11590884787332], [-119.4685530867816, 37.11944672734721], [-119.4673066881767, 37.12258852013247], [-119.467941266395, 37.12491315642896], [-119.46888531316, 37.12662547834537], [-119.467119647135, 37.12954145558872], [-119.4656872774665, 37.13311208369202], [-119.4652259121375, 37.13726036587842], [-119.4632913746592, 37.14256476220954], [-119.4617406346623, 37.14584829385229], [-119.456349240929, 37.14586211051299], [-119.4475750452569, 37.14511642117166], [-119.4404511869481, 37.14590694658798], [-119.4363826213615, 37.14790322271181], [-119.4341640631498, 37.15013006062449], [-119.4331708113043, 37.15226438844171], [-119.4325147448693, 37.15510818880923], [-119.4321942426949, 37.15821688748985], [-119.4323152603102, 37.16043626778347], [-119.4318786065517, 37.16257134488549], [-119.4305465204719, 37.16364039806465], [-119.4243097206868, 37.16419097325266], [-119.4171782186401, 37.16385406213442], [-119.4127348580896, 37.16386620619144], [-119.410155291827, 37.16211102527305], [-119.40848112353, 37.1602707178173], [-119.4078100359863, 37.15999735074974], [-119.4054745969811, 37.15695538709412], [-119.4037752606922, 37.15484121054086], [-119.4025398603437, 37.15288474624737], [-119.4013051250826, 37.14970103830289], [-119.3963982739906, 37.14952353058278], [-119.3887233740812, 37.14973742387318], [-119.3849733712408, 37.15051093540514], [-119.3843241707182, 37.15212854632569], [-119.3841724314491, 37.15374151528684], [-119.3817424564002, 37.15421704774355], [-119.3797340347197, 37.15483490027623], [-119.3782851165473, 37.15589866992375], [-119.3766961445894, 37.15740689022356], [-119.3759819297211, 37.15906765074366], [-119.376004445987, 37.16135502561436], [-119.3747897753745, 37.16491690127332], [-119.3606269054841, 37.16850844635255], [-119.3588325741827, 37.17145557795894], [-119.3575052968908, 37.17497511312823], [-119.3577675896358, 37.17730477635753], [-119.3577723503018, 37.18037513311964], [-119.3567515348831, 37.18356793393545], [-119.3539286142101, 37.18615387908863], [-119.345083137938, 37.18972185916007], [-119.3432541624814, 37.19145676994854], [-119.3398027137519, 37.19355487322277], [-119.3385024054917, 37.19661877998944], [-119.3365213024376, 37.19990315961167], [-119.3332775979431, 37.20272224372658], [-119.3325571485726, 37.20513715960654], [-119.3312493042698, 37.20775262493932], [-119.3304134237602, 37.20999340149311], [-119.3303239272415, 37.21282381460907], [-119.332426778796, 37.21520179827095], [-119.3347520818646, 37.21657599377058], [-119.3368229728106, 37.21844650854238], [-119.3367530996124, 37.22049042765821], [-119.3345602013888, 37.22833240280532], [-119.3321850769002, 37.23834821320185], [-119.3302441024164, 37.23984960602955], [-119.3268031754753, 37.24224271907103], [-119.3234621870753, 37.24474489125898], [-119.3239862291231, 37.24814755308395], [-119.3229964695618, 37.25695570806986], [-119.3239564230726, 37.26096090132865], [-119.3239040101426, 37.26466470783996], [-119.3251009032452, 37.26887709432076], [-119.3274588826268, 37.27144160201908], [-119.3307439014226, 37.27332958451223], [-119.3325449259233, 37.27637578646408], [-119.3313850953983, 37.27964785841097], [-119.329359823604, 37.28433031782163], [-119.3278823771863, 37.28829517556778], [-119.3273465611976, 37.29181288496044], [-119.3276415474648, 37.29461376983299], [-119.3285880349995, 37.29743185787768], [-119.3306724687007, 37.30046445809648], [-119.332374573406, 37.30278028493056], [-119.3338837083033, 37.30604690948995], [-119.334505516655, 37.30932502008576], [-119.3344885285978, 37.31235508379123], [-119.3251515432421, 37.31984153536785], [-119.3193358881957, 37.32078976079077], [-119.3180199754099, 37.32313163960509], [-119.3183870528694, 37.32592840934659], [-119.3207003890769, 37.32942021441396], [-119.3221732509648, 37.33291089725652], [-119.3218931857516, 37.33593951843976], [-119.3193032245434, 37.33710610274858], [-119.3134378673887, 37.33781577272039], [-119.3134616526325, 37.34037702366688], [-119.3134974908121, 37.34223449100288], [-119.3140484454312, 37.34456800168755], [-119.3157781070574, 37.3478344179639], [-119.3113995917525, 37.35156729221232], [-119.3017546409959, 37.35274469321322], [-119.2993807339328, 37.35485142224754], [-119.2979261200213, 37.35951444296026], [-119.2977019214152, 37.36369563698958], [-119.2983494901684, 37.36704314865282], [-119.0207453347148, 37.58657115125069], [-119.0203126356563, 37.58885019860774], [-119.0198386078412, 37.59283718939552], [-119.0205686778774, 37.59687560887662], [-119.0207833978, 37.60250431657506], [-119.0199744992013, 37.6069503838228], [-119.0221185373141, 37.60932823087916], [-119.0243222129201, 37.61218438452857], [-119.0262658472224, 37.61456694884006], [-119.0300898764083, 37.61647847375023], [-119.0343720367286, 37.61885191042676], [-119.0397524145134, 37.62098453438979], [-119.0418789511331, 37.62358676284886], [-119.0430309147277, 37.62689923463628], [-119.0452770042038, 37.63044319105153], [-119.0469521840312, 37.63280461991359], [-119.0486676183228, 37.63611445019926], [-119.0505092050618, 37.6410879472387], [-119.0523848367607, 37.64394225064079], [-119.0554812123569, 37.64464718710443], [-119.0591826614729, 37.64632179701659], [-119.0603196598853, 37.65059235535044], [-119.061763931144, 37.65510410657426], [-119.0629255960643, 37.65961142073374], [-119.064360994821, 37.66649989957992], [-119.0671881386259, 37.6699966873417], [-119.0692124243635, 37.67174566686821], [-119.0716841738599, 37.67366272630512], [-119.072215806545, 37.67619420833495], [-119.072584998223, 37.67913256309985], [-119.0737722804938, 37.68064698442082], [-119.0755629215144, 37.68216781140341], [-119.0785347602444, 37.68565532171592], [-119.0814728346099, 37.68921535970195], [-119.0813934302995, 37.6946668134404], [-119.0852427229889, 37.69675218478493], [-119.0909068110798, 37.70034844299907], [-119.0965920876965, 37.70585642182242], [-119.0988478645748, 37.70893019961515], [-119.101880422619, 37.71071698056429], [-119.1058590419053, 37.71369874120359], [-119.113837563237, 37.72970250088378], [-119.1172432166982, 37.72986888970581], [-119.1190049871098, 37.73210043361481], [-119.1219011776795, 37.73210275907046], [-119.1331007833967, 37.7378648550028], [-119.1389091439432, 37.73706168988693], [-119.150038528172, 37.73560708274645], [-119.1544059908227, 37.73722324454647], [-119.1627386008386, 37.73464420274006], [-119.1729236759724, 37.73560950877417], [-119.1793168561645, 37.73351645542756], [-119.1880296657832, 37.73334771256686], [-119.2207479948003, 37.71630951076001], [-119.2249243064196, 37.71218989243559], [-119.2276465666309, 37.71316315008112], [-119.2300152457763, 37.71785207003306], [-119.2345579840632, 37.71979148615365], [-119.2440646201313, 37.72760429255879], [-119.2498272823055, 37.7292354457441], [-119.252493271094, 37.72917339488347], [-119.2616022816551, 37.73175026683892], [-119.2689320901477, 37.73940937501716], [-119.2760777959005, 37.73981378869254], [-119.2833740627787, 37.74479076281843], [-119.289628970228, 37.74726436956436], [-119.2961679996073, 37.74792936939755], [-119.2998945902175, 37.75743351514934], [-119.3051953699871, 37.76395233060271], [-119.311258583725, 37.76624188546285], [-119.3127290018423, 37.76905565613036], [-119.314257150915, 37.77550678927691], [-119.3194789949053, 37.7797871055708], [-119.5863768442228, 37.56101289621007], [-119.5849068253373, 37.49512295748285], [-119.6134981250577, 37.49372357762518], [-119.6167348943731, 37.46285262922947], [-119.6501829585755, 37.4601224320502], [-119.651056702868, 37.4188467433549], [-119.7618788447945, 37.4176969273699], [-119.881697779278, 37.32578467303387], [-119.8821187025243, 37.32571327959752]]]}}]}